STARLINK-1641
1 46174U 20057BK  26061.10767906  .00045069  00000+0  80211-3 0  9995
2 46174  53.0518 321.3693 0000939 107.9271 252.1840 15.49715642305331
